{
  "type": "FeatureCollection",
  "features": [
    {
      "type": "Feature",
      "properties": {
        "norad_id": 30663,
        "name": "FENGYUN 1C DEB",
        "group": "fengyun-1c-debris",
        "lat": -5.798901246976471,
        "lon": -94.97864246515104,
        "alt_km": 1545.579479959304,
        "timestamp": "2025-12-13T03:42:11.550731+00:00",
        "meta_object_name": "FENGYUN 1C DEB",
        "meta_object_id": "1999-025APV",
        "meta_epoch": "2025-12-10T17:39:32.330304",
        "meta_mean_motion": 13.23119607,
        "meta_eccentricity": 0.06478185,
        "meta_inclination": 99.3025,
        "meta_ra_of_asc_node": 261.8948,
        "meta_arg_of_pericenter": 141.47,
        "meta_mean_anomaly": 223.4554,
        "meta_ephemeris_type": 0,
        "meta_classification_type": "U",
        "meta_norad_cat_id": 30663,
        "meta_element_set_no": 999,
        "meta_rev_at_epoch": 89021,
        "meta_bstar": 0.0019128295,
        "meta_mean_motion_dot": 2.46e-05,
        "meta_mean_motion_ddot": 0,
        "tle_line1": "1 30663U 99025APV 25344.73579086  .00002460  00000+0  19128-2 0  9990",
        "tle_line2": "2 30663  99.3025 261.8948 0647818 141.4700 223.4554 13.23119607890215"
      },
      "geometry": {
        "type": "Point",
        "coordinates": [
          -94.97864246515104,
          -5.798901246976471
        ]
      }
    },
    {
      "type": "Feature",
      "properties": {
        "norad_id": 30665,
        "name": "FENGYUN 1C DEB",
        "group": "fengyun-1c-debris",
        "lat": -22.319916320568325,
        "lon": -37.416430633890656,
        "alt_km": 891.6950570187055,
        "timestamp": "2025-12-13T03:42:11.550741+00:00",
        "meta_object_name": "FENGYUN 1C DEB",
        "meta_object_id": "1999-025APX",
        "meta_epoch": "2025-12-11T21:28:14.216736",
        "meta_mean_motion": 14.12333378,
        "meta_eccentricity": 0.0067675,
        "meta_inclination": 99.2082,
        "meta_ra_of_asc_node": 317.4715,
        "meta_arg_of_pericenter": 205.0006,
        "meta_mean_anomaly": 210.6727,
        "meta_ephemeris_type": 0,
        "meta_classification_type": "U",
        "meta_norad_cat_id": 30665,
        "meta_element_set_no": 999,
        "meta_rev_at_epoch": 95958,
        "meta_bstar": 0.0022947,
        "meta_mean_motion_dot": 4.274e-05,
        "meta_mean_motion_ddot": 0,
        "tle_line1": "1 30665U 99025APX 25345.89460899  .00004274  00000+0  22947-2 0  9999",
        "tle_line2": "2 30665  99.2082 317.4715 0067675 205.0006 210.6727 14.12333378959580"
      },
      "geometry": {
        "type": "Point",
        "coordinates": [
          -37.416430633890656,
          -22.319916320568325
        ]
      }
    },
    {
      "type": "Feature",
      "properties": {
        "norad_id": 30666,
        "name": "FENGYUN 1C DEB",
        "group": "fengyun-1c-debris",
        "lat": 46.58388322478707,
        "lon": 160.20552882351046,
        "alt_km": 837.0903857436633,
        "timestamp": "2025-12-13T03:42:11.550751+00:00",
        "meta_object_name": "FENGYUN 1C DEB",
        "meta_object_id": "1999-025APY",
        "meta_epoch": "2025-12-12T04:52:14.217312",
        "meta_mean_motion": 14.02554876,
        "meta_eccentricity": 0.00611475,
        "meta_inclination": 98.8224,
        "meta_ra_of_asc_node": 329.837,
        "meta_arg_of_pericenter": 145.4827,
        "meta_mean_anomaly": 226.3104,
        "meta_ephemeris_type": 0,
        "meta_classification_type": "U",
        "meta_norad_cat_id": 30666,
        "meta_element_set_no": 999,
        "meta_rev_at_epoch": 96103,
        "meta_bstar": 0.00029555483,
        "meta_mean_motion_dot": 4.21e-06,
        "meta_mean_motion_ddot": 0,
        "tle_line1": "1 30666U 99025APY 25346.20294233  .00000421  00000+0  29555-3 0  9996",
        "tle_line2": "2 30666  98.8224 329.8370 0061147 145.4827 226.3104 14.02554876961037"
      },
      "geometry": {
        "type": "Point",
        "coordinates": [
          160.20552882351046,
          46.58388322478707
        ]
      }
    },
    {
      "type": "Feature",
      "properties": {
        "norad_id": 30668,
        "name": "FENGYUN 1C DEB",
        "group": "fengyun-1c-debris",
        "lat": 66.72390285385815,
        "lon": 38.268512327579224,
        "alt_km": 901.8985229866685,
        "timestamp": "2025-12-13T03:42:11.550761+00:00",
        "meta_object_name": "FENGYUN 1C DEB",
        "meta_object_id": "1999-025AQA",
        "meta_epoch": "2025-12-11T16:24:51.939936",
        "meta_mean_motion": 14.12317067,
        "meta_eccentricity": 0.00790636,
        "meta_inclination": 99.1286,
        "meta_ra_of_asc_node": 58.72,
        "meta_arg_of_pericenter": 249.0273,
        "meta_mean_anomaly": 267.8152,
        "meta_ephemeris_type": 0,
        "meta_classification_type": "U",
        "meta_norad_cat_id": 30668,
        "meta_element_set_no": 999,
        "meta_rev_at_epoch": 96040,
        "meta_bstar": 0.0027444387,
        "meta_mean_motion_dot": 5.161e-05,
        "meta_mean_motion_ddot": 0,
        "tle_line1": "1 30668U 99025AQA 25345.68393449  .00005161  00000+0  27444-2 0  9998",
        "tle_line2": "2 30668  99.1286  58.7200 0079063 249.0273 267.8152 14.12317067960406"
      },
      "geometry": {
        "type": "Point",
        "coordinates": [
          38.268512327579224,
          66.72390285385815
        ]
      }
    },
    {
      "type": "Feature",
      "properties": {
        "norad_id": 30669,
        "name": "FENGYUN 1C DEB",
        "group": "fengyun-1c-debris",
        "lat": 69.09598792925864,
        "lon": 127.2424089726401,
        "alt_km": 842.5391262366802,
        "timestamp": "2025-12-13T03:42:11.550771+00:00",
        "meta_object_name": "FENGYUN 1C DEB",
        "meta_object_id": "1999-025AQB",
        "meta_epoch": "2025-12-11T08:59:00.508416",
        "meta_mean_motion": 14.02717608,
        "meta_eccentricity": 0.01176986,
        "meta_inclination": 98.6336,
        "meta_ra_of_asc_node": 282.1147,
        "meta_arg_of_pericenter": 180.4506,
        "meta_mean_anomaly": 306.2574,
        "meta_ephemeris_type": 0,
        "meta_classification_type": "U",
        "meta_norad_cat_id": 30669,
        "meta_element_set_no": 999,
        "meta_rev_at_epoch": 95434,
        "meta_bstar": 0.0018104662,
        "meta_mean_motion_dot": 2.932e-05,
        "meta_mean_motion_ddot": 0,
        "tle_line1": "1 30669U 99025AQB 25345.37431144  .00002932  00000+0  18105-2 0  9997",
        "tle_line2": "2 30669  98.6336 282.1147 0117698 180.4506 306.2574 14.02717608954340"
      },
      "geometry": {
        "type": "Point",
        "coordinates": [
          127.2424089726401,
          69.09598792925864
        ]
      }
    },
    {
      "type": "Feature",
      "properties": {
        "norad_id": 30670,
        "name": "FENGYUN 1C DEB",
        "group": "fengyun-1c-debris",
        "lat": 52.36406874916927,
        "lon": 20.10576139667311,
        "alt_km": 806.7862954703733,
        "timestamp": "2025-12-13T03:42:11.550781+00:00",
        "meta_object_name": "FENGYUN 1C DEB",
        "meta_object_id": "1999-025AQC",
        "meta_epoch": "2025-12-12T02:09:00.969984",
        "meta_mean_motion": 14.15816943,
        "meta_eccentricity": 0.00399052,
        "meta_inclination": 98.7112,
        "meta_ra_of_asc_node": 30.5336,
        "meta_arg_of_pericenter": 71.4534,
        "meta_mean_anomaly": 318.2732,
        "meta_ephemeris_type": 0,
        "meta_classification_type": "U",
        "meta_norad_cat_id": 30670,
        "meta_element_set_no": 999,
        "meta_rev_at_epoch": 97143,
        "meta_bstar": 0.00013518066,
        "meta_mean_motion_dot": 2.25e-06,
        "meta_mean_motion_ddot": 0,
        "tle_line1": "1 30670U 99025AQC 25346.08959456  .00000225  00000+0  13518-3 0  9996",
        "tle_line2": "2 30670  98.7112  30.5336 0039905  71.4534 318.2732 14.15816943971438"
      },
      "geometry": {
        "type": "Point",
        "coordinates": [
          20.10576139667311,
          52.36406874916927
        ]
      }
    },
    {
      "type": "Feature",
      "properties": {
        "norad_id": 30671,
        "name": "FENGYUN 1C DEB",
        "group": "fengyun-1c-debris",
        "lat": -14.34381762013629,
        "lon": 54.255113782327285,
        "alt_km": 850.3576056692082,
        "timestamp": "2025-12-13T03:42:11.550791+00:00",
        "meta_object_name": "FENGYUN 1C DEB",
        "meta_object_id": "1999-025AQD",
        "meta_epoch": "2025-12-11T21:04:31.237248",
        "meta_mean_motion": 13.95456096,
        "meta_eccentricity": 0.012606,
        "meta_inclination": 99.2527,
        "meta_ra_of_asc_node": 50.5854,
        "meta_arg_of_pericenter": 35.6592,
        "meta_mean_anomaly": 23.4447,
        "meta_ephemeris_type": 0,
        "meta_classification_type": "U",
        "meta_norad_cat_id": 30671,
        "meta_element_set_no": 999,
        "meta_rev_at_epoch": 95183,
        "meta_bstar": 0.001632,
        "meta_mean_motion_dot": 2.322e-05,
        "meta_mean_motion_ddot": 0,
        "tle_line1": "1 30671U 99025AQD 25345.87813932  .00002322  00000+0  16320-2 0  9994",
        "tle_line2": "2 30671  99.2527  50.5854 0126060  35.6592  23.4447 13.95456096951833"
      },
      "geometry": {
        "type": "Point",
        "coordinates": [
          54.255113782327285,
          -14.34381762013629
        ]
      }
    }
  ]
}